{"type": "FeatureCollection", "features": [ {"type": "Feature", "properties": {"norad_id": 44804, "name": "CARTOSAT-3", "group": "resource", "lat": -77.00668279591646, "lon": -163.25633691897912, "alt_km": 525.0252746785618, "timestamp": "2025-12-17T19:34:07.702526+00:00", "meta": {"OBJECT_NAME": "CARTOSAT-3", "OBJECT_ID": "2019-081A", "EPOCH": "2025-12-17T07:21:56.382912", "MEAN_MOTION": 15.19192601, "ECCENTRICITY": 0.00139876, "INCLINATION": 97.4581, "RA_OF_ASC_NODE": 50.8334, "ARG_OF_PERICENTER": 68.7175, "MEAN_ANOMALY": 291.5552, "EPHEMERIS_TYPE": 0, "CLASSIFICATION_TYPE": "U", "NORAD_CAT_ID": 44804, "ELEMENT_SET_NO": 999, "REV_AT_EPOCH": 33585, "BSTAR": 0.00021586681, "MEAN_MOTION_DOT": 4.484e-05, "MEAN_MOTION_DDOT": 0}, "tle": {"line1": "1 44804U 19081A   25351.30690258  .00004484  00000+0  21587-3 0  9993", "line2": "2 44804  97.4581  50.8334 0013987  68.7175 291.5552 15.19192601335859"}}, "geometry": {"type": "Point", "coordinates": [-163.25633691897912, -77.00668279591646]}}, {"type": "Feature", "properties": {"norad_id": 44819, "name": "GAOFEN-12 01", "group": "resource", "lat": 20.113363129073576, "lon": -4.918849003113409, "alt_km": 628.4197527617853, "timestamp": "2025-12-17T19:34:07.702536+00:00", "meta": {"OBJECT_NAME": "GAOFEN-12 01", "OBJECT_ID": "2019-082A", "EPOCH": "2025-12-17T06:30:08.053920", "MEAN_MOTION": 14.80662668, "ECCENTRICITY": 0.00015916, "INCLINATION": 97.8124, "RA_OF_ASC_NODE": 357.433, "ARG_OF_PERICENTER": 209.0362, "MEAN_ANOMALY": 151.0762, "EPHEMERIS_TYPE": 0, "CLASSIFICATION_TYPE": "U", "NORAD_CAT_ID": 44819, "ELEMENT_SET_NO": 999, "REV_AT_EPOCH": 32717, "BSTAR": 6.2466038e-05, "MEAN_MOTION_DOT": 4.29e-06, "MEAN_MOTION_DDOT": 0}, "tle": {"line1": "1 44819U 19082A   25351.27092655  .00000429  00000+0  62466-4 0  9990", "line2": "2 44819  97.8124 357.4330 0001591 209.0362 151.0762 14.80662668327171"}}, "geometry": {"type": "Point", "coordinates": [-4.918849003113409, 20.113363129073576]}}, {"type": "Feature", "properties": {"norad_id": 44873, "name": "CSG-1", "group": "resource", "lat": 20.985472455633488, "lon": -3.8918215166677568, "alt_km": 622.1991574967533, "timestamp": "2025-12-17T19:34:07.702546+00:00", "meta": {"OBJECT_NAME": "CSG-1", "OBJECT_ID": "2019-092A", "EPOCH": "2025-12-17T07:30:48.320064", "MEAN_MOTION": 14.82146494, "ECCENTRICITY": 0.00014899, "INCLINATION": 97.8803, "RA_OF_ASC_NODE": 172.5683, "ARG_OF_PERICENTER": 86.9918, "MEAN_ANOMALY": 273.1465, "EPHEMERIS_TYPE": 0, "CLASSIFICATION_TYPE": "U", "NORAD_CAT_ID": 44873, "ELEMENT_SET_NO": 999, "REV_AT_EPOCH": 32453, "BSTAR": 6.6459706e-05, "MEAN_MOTION_DOT": 4.77e-06, "MEAN_MOTION_DDOT": 0}, "tle": {"line1": "1 44873U 19092A   25351.31305926  .00000477  00000+0  66460-4 0  9995", "line2": "2 44873  97.8803 172.5683 0001489  86.9918 273.1465 14.82146494324536"}}, "geometry": {"type": "Point", "coordinates": [-3.8918215166677568, 20.985472455633488]}}, {"type": "Feature", "properties": {"norad_id": 46277, "name": "NEMO-HD", "group": "resource", "lat": -59.740314801212925, "lon": 63.40173855388821, "alt_km": 452.4174057906994, "timestamp": "2025-12-17T19:34:07.702556+00:00", "meta": {"OBJECT_NAME": "NEMO-HD", "OBJECT_ID": "2020-061F", "EPOCH": "2025-12-17T07:21:32.357664", "MEAN_MOTION": 15.40423249, "ECCENTRICITY": 0.00015799, "INCLINATION": 97.2212, "RA_OF_ASC_NODE": 50.3468, "ARG_OF_PERICENTER": 53.2627, "MEAN_ANOMALY": 306.8765, "EPHEMERIS_TYPE": 0, "CLASSIFICATION_TYPE": "U", "NORAD_CAT_ID": 46277, "ELEMENT_SET_NO": 999, "REV_AT_EPOCH": 29394, "BSTAR": 0.00022429733, "MEAN_MOTION_DOT": 8.993e-05, "MEAN_MOTION_DDOT": 0}, "tle": {"line1": "1 46277U 20061F   25351.30662451  .00008993  00000+0  22430-3 0  9990", "line2": "2 46277  97.2212  50.3468 0001579  53.2627 306.8765 15.40423249293940"}}, "geometry": {"type": "Point", "coordinates": [63.40173855388821, -59.740314801212925]}}, {"type": "Feature", "properties": {"norad_id": 46984, "name": "SENTINEL-6A", "group": "resource", "lat": 63.206642085518844, "lon": -89.94059896751351, "alt_km": 1336.4814310801112, "timestamp": "2025-12-17T19:34:07.702566+00:00", "meta": {"OBJECT_NAME": "SENTINEL-6A", "OBJECT_ID": "2020-086A", "EPOCH": "2025-12-17T04:02:44.276064", "MEAN_MOTION": 12.80930784, "ECCENTRICITY": 0.00077106, "INCLINATION": 66.039, "RA_OF_ASC_NODE": 153.109, "ARG_OF_PERICENTER": 269.2841, "MEAN_ANOMALY": 90.7291, "EPHEMERIS_TYPE": 0, "CLASSIFICATION_TYPE": "U", "NORAD_CAT_ID": 46984, "ELEMENT_SET_NO": 999, "REV_AT_EPOCH": 23701, "BSTAR": 7.7455663e-05, "MEAN_MOTION_DOT": -4.3e-07, "MEAN_MOTION_DDOT": 0}, "tle": {"line1": "1 46984U 20086A   25351.16856801 -.00000043  00000+0  77456-4 0  9998", "line2": "2 46984  66.0390 153.1090 0007710 269.2841  90.7291 12.80930784237016"}}, "geometry": {"type": "Point", "coordinates": [-89.94059896751351, 63.206642085518844]}}, {"type": "Feature", "properties": {"norad_id": 48079, "name": "GAOFEN-12 02", "group": "resource", "lat": 31.631537488587917, "lon": -19.16290814002608, "alt_km": 624.0767063931107, "timestamp": "2025-12-17T19:34:07.702576+00:00", "meta": {"OBJECT_NAME": "GAOFEN-12 02", "OBJECT_ID": "2021-026A", "EPOCH": "2025-12-17T06:26:59.924832", "MEAN_MOTION": 14.80680592, "ECCENTRICITY": 0.00036023, "INCLINATION": 97.9852, "RA_OF_ASC_NODE": 345.2533, "ARG_OF_PERICENTER": 92.0219, "MEAN_ANOMALY": 268.1405, "EPHEMERIS_TYPE": 0, "CLASSIFICATION_TYPE": "U", "NORAD_CAT_ID": 48079, "ELEMENT_SET_NO": 999, "REV_AT_EPOCH": 25484, "BSTAR": 6.3351159e-05, "MEAN_MOTION_DOT": 4.34e-06, "MEAN_MOTION_DDOT": 0}, "tle": {"line1": "1 48079U 21026A   25351.26874913  .00000434  00000+0  63351-4 0  9997", "line2": "2 48079  97.9852 345.2533 0003602  92.0219 268.1405 14.80680592254841"}}, "geometry": {"type": "Point", "coordinates": [-19.16290814002608, 31.631537488587917]}}, {"type": "Feature", "properties": {"norad_id": 48268, "name": "PLEIADES NEO 3", "group": "resource", "lat": 61.70921945346567, "lon": -100.87634879615948, "alt_km": 617.213741941513, "timestamp": "2025-12-17T19:34:07.702591+00:00", "meta": {"OBJECT_NAME": "PLEIADES NEO 3", "OBJECT_ID": "2021-034A", "EPOCH": "2025-12-17T07:41:46.872096", "MEAN_MOTION": 14.8167515, "ECCENTRICITY": 0.00013308, "INCLINATION": 97.8948, "RA_OF_ASC_NODE": 63.696, "ARG_OF_PERICENTER": 91.1912, "MEAN_ANOMALY": 268.9453, "EPHEMERIS_TYPE": 0, "CLASSIFICATION_TYPE": "U", "NORAD_CAT_ID": 48268, "ELEMENT_SET_NO": 999, "REV_AT_EPOCH": 25072, "BSTAR": 0.00015967996, "MEAN_MOTION_DOT": 1.205e-05, "MEAN_MOTION_DDOT": 0}, "tle": {"line1": "1 48268U 21034A   25351.32068139  .00001205  00000+0  15968-3 0  9995", "line2": "2 48268  97.8948  63.6960 0001330  91.1912 268.9453 14.81675150250726"}}, "geometry": {"type": "Point", "coordinates": [-100.87634879615948, 61.70921945346567]}}, {"type": "Feature", "properties": {"norad_id": 49070, "name": "PLEIADES NEO 4", "group": "resource", "lat": -61.78930878207192, "lon": 79.17026185915859, "alt_km": 632.0423244287394, "timestamp": "2025-12-17T19:34:07.702602+00:00", "meta": {"OBJECT_NAME": "PLEIADES NEO 4", "OBJECT_ID": "2021-073E", "EPOCH": "2025-12-16T19:32:25.031904", "MEAN_MOTION": 14.81671846, "ECCENTRICITY": 0.0001248, "INCLINATION": 97.8946, "RA_OF_ASC_NODE": 63.1925, "ARG_OF_PERICENTER": 98.3982, "MEAN_ANOMALY": 261.7372, "EPHEMERIS_TYPE": 0, "CLASSIFICATION_TYPE": "U", "NORAD_CAT_ID": 49070, "ELEMENT_SET_NO": 999, "REV_AT_EPOCH": 23436, "BSTAR": 1.737636e-05, "MEAN_MOTION_DOT": 8.5e-07, "MEAN_MOTION_DDOT": 0}, "tle": {"line1": "1 49070U 21073E   25350.81417861  .00000085  00000+0  17376-4 0  9994", "line2": "2 49070  97.8946  63.1925 0001248  98.3982 261.7372 14.81671846234367"}}, "geometry": {"type": "Point", "coordinates": [79.17026185915859, -61.78930878207192]}}, {"type": "Feature", "properties": {"norad_id": 49260, "name": "LANDSAT 9", "group": "resource", "lat": -45.20290757088469, "lon": -128.50692131304402, "alt_km": 709.8621775637548, "timestamp": "2025-12-17T19:34:07.702612+00:00", "meta": {"OBJECT_NAME": "LANDSAT 9", "OBJECT_ID": "2021-088A", "EPOCH": "2025-12-17T03:42:12.322656", "MEAN_MOTION": 14.57102532, "ECCENTRICITY": 0.00011277, "INCLINATION": 98.2091, "RA_OF_ASC_NODE": 59.2013, "ARG_OF_PERICENTER": 90.0255, "MEAN_ANOMALY": 270.1073, "EPHEMERIS_TYPE": 0, "CLASSIFICATION_TYPE": "U", "NORAD_CAT_ID": 49260, "ELEMENT_SET_NO": 999, "REV_AT_EPOCH": 22449, "BSTAR": 9.3579077e-05, "MEAN_MOTION_DOT": 3.76e-06, "MEAN_MOTION_DDOT": 0}, "tle": {"line1": "1 49260U 21088A   25351.15430929  .00000376  00000+0  93579-4 0  9991", "line2": "2 49260  98.2091  59.2013 0001127  90.0255 270.1073 14.57102532224495"}}, "geometry": {"type": "Point", "coordinates": [-128.50692131304402, -45.20290757088469]}}, {"type": "Feature", "properties": {"norad_id": 51444, "name": "CSG-2", "group": "resource", "lat": -21.23569466438296, "lon": 176.14628369139172, "alt_km": 628.1227619617921, "timestamp": "2025-12-17T19:34:07.702622+00:00", "meta": {"OBJECT_NAME": "CSG-2", "OBJECT_ID": "2022-008A", "EPOCH": "2025-12-17T08:19:24.802176", "MEAN_MOTION": 14.82150297, "ECCENTRICITY": 0.00014751, "INCLINATION": 97.8802, "RA_OF_ASC_NODE": 172.5998, "ARG_OF_PERICENTER": 84.6177, "MEAN_ANOMALY": 275.5204, "EPHEMERIS_TYPE": 0, "CLASSIFICATION_TYPE": "U", "NORAD_CAT_ID": 51444, "ELEMENT_SET_NO": 999, "REV_AT_EPOCH": 20965, "BSTAR": 0.00011225906, "MEAN_MOTION_DOT": 8.42e-06, "MEAN_MOTION_DDOT": 0}, "tle": {"line1": "1 51444U 22008A   25351.34681484  .00000842  00000+0  11226-3 0  9992", "line2": "2 51444  97.8802 172.5998 0001475  84.6177 275.5204 14.82150297209651"}}, "geometry": {"type": "Point", "coordinates": [176.14628369139172, -21.23569466438296]}}]}